[{"OBJECT_NAME":"STARLINK-31004","OBJECT_ID":"2023-191W","EPOCH":"2026-03-09T04:05:03.720480","MEAN_MOTION":15.26740931,"ECCENTRICITY":0.00010168,"INCLINATION":43.0025,"RA_OF_ASC_NODE":106.2086,"ARG_OF_PERICENTER":256.7184,"MEAN_ANOMALY":103.3554,"EPHEMERIS_TYPE":0,"CLASSIFICATION_TYPE":"U","NORAD_CAT_ID":58528,"ELEMENT_SET_NO":999,"REV_AT_EPOCH":12539,"BSTAR":-2.6480248e-5,"MEAN_MOTION_DOT":-9.7e-6,"MEAN_MOTION_DDOT":0},{"OBJECT_NAME":"MESON-1","OBJECT_ID":"2024-043AK","EPOCH":"2026-03-09T21:36:16.481664","MEAN_MOTION":15.29893494,"ECCENTRICITY":0.00095452,"INCLINATION":97.5469,"RA_OF_ASC_NODE":205.2839,"ARG_OF_PERICENTER":227.1432,"MEAN_ANOMALY":132.9007,"EPHEMERIS_TYPE":0,"CLASSIFICATION_TYPE":"U","NORAD_CAT_ID":59131,"ELEMENT_SET_NO":999,"REV_AT_EPOCH":11189,"BSTAR":0.0002974823,"MEAN_MOTION_DOT":8.544e-5,"MEAN_MOTION_DDOT":0}]
